{
  "norad_id": 60066,
  "name": "STARLINK-11141 [DTC]",
  "history": [
    {
      "epoch": "2026-03-28T09:37:27.617376Z",
      "apogee_km": 360.4970362208751,
      "perigee_km": 358.88090128400927,
      "latitude_deg": -4.707289054502408e-05,
      "longitude_deg": 128.51649927487713,
      "height_km": 360.9019365089268,
      "semi_major_axis_km": 6737.825968752441,
      "eccentricity": 0.00011993,
      "inclination_deg": 53.1587,
      "raan_deg": 98.7036,
      "arg_perigee_deg": 111.7522,
      "mean_anomaly_deg": 248.3623,
      "mean_motion_rev_day": 15.69723203
    }
  ]
}